GLOBALSTAR M063         
1 26081U 00008A   24295.24953733 -.00000030  00000+0  76715-3 0  9995
2 26081  51.9986  20.8421 0004736 208.4473 166.4128 11.86162576129229
GLOBALSTAR M062         
1 26082U 00008B   24295.46255506 -.00000070  00000+0  20371-3 0  9994
2 26082  51.9843  77.7876 0006314 328.6376  72.5077 12.43451214466923
GLOBALSTAR M060         
1 26083U 00008C   24295.36305102 -.00000164  00000+0 -73047-3 0  9995
2 26083  52.0051   4.3034 0003058   7.0301  93.1838 12.17645184123271
GLOBALSTAR M064         
1 26084U 00008D   24295.55235323 -.00000055  00000+0  40362-3 0  9996
2 26084  52.0001 121.6868 0001162   1.4695 358.6141 11.88525014138833
GLOBALSTAR M065         
1 31571U 07020A   24295.29886660 -.00000164  00000+0 -33720-3 0  9993
2 31571  51.9893 233.3539 0010088 132.8881  32.4879 12.61980488803247
GLOBALSTAR M069         
1 31573U 07020C   24295.08899726 -.00000023  00000+0  48830-3 0  9990
2 31573  51.9940 190.6907 0001447  31.7670 118.3069 12.53302579804334
GLOBALSTAR M072         
1 31574U 07020D   24295.41845608 -.00000058  00000+0  25293-3 0  9994
2 31574  52.0081 284.7156 0000294   3.2093 161.2095 12.62267102802668
GLOBALSTAR M071         
1 31576U 07020F   24295.20492362 -.00000010  00000+0  52359-3 0  9999
2 31576  52.0058 194.5757 0001345  24.5320 111.5101 12.62260906465550
